{
  "type": "FeatureCollection",
  "features": [
    {
      "type": "Feature",
      "properties": {
        "norad_id": 30396,
        "name": "FENGYUN 1C DEB",
        "group": "fengyun-1c-debris",
        "lat": 57.34107435047302,
        "lon": -8.790213009003763,
        "alt_km": 848.4766530258757,
        "timestamp": "2025-12-27T03:58:44.427793+00:00",
        "meta_object_name": "FENGYUN 1C DEB",
        "meta_object_id": "1999-025ADK",
        "meta_epoch": "2025-12-26T18:09:34.611840",
        "meta_mean_motion": 13.87173128,
        "meta_eccentricity": 0.0135254,
        "meta_inclination": 98.2241,
        "meta_ra_of_asc_node": 3.8892,
        "meta_arg_of_pericenter": 91.2227,
        "meta_mean_anomaly": 85.8772,
        "meta_ephemeris_type": 0,
        "meta_classification_type": "U",
        "meta_norad_cat_id": 30396,
        "meta_element_set_no": 999,
        "meta_rev_at_epoch": 95773,
        "meta_bstar": 0.00012113,
        "meta_mean_motion_dot": 1.18e-06,
        "meta_mean_motion_ddot": 0,
        "tle_line1": "1 30396U 99025ADK 25360.75665060  .00000118  00000+0  12113-3 0  9997",
        "tle_line2": "2 30396  98.2241   3.8892 0135254  91.2227  85.8772 13.87173128957731"
      },
      "geometry": {
        "type": "Point",
        "coordinates": [
          -8.790213009003763,
          57.34107435047302
        ]
      }
    },
    {
      "type": "Feature",
      "properties": {
        "norad_id": 30397,
        "name": "FENGYUN 1C DEB",
        "group": "fengyun-1c-debris",
        "lat": 0.08132273821915406,
        "lon": -31.80713673906538,
        "alt_km": 967.0130952171239,
        "timestamp": "2025-12-27T03:58:44.427802+00:00",
        "meta_object_name": "FENGYUN 1C DEB",
        "meta_object_id": "1999-025ADL",
        "meta_epoch": "2025-12-26T15:23:33.154080",
        "meta_mean_motion": 13.98633404,
        "meta_eccentricity": 0.0149429,
        "meta_inclination": 98.4065,
        "meta_ra_of_asc_node": 147.6997,
        "meta_arg_of_pericenter": 53.4916,
        "meta_mean_anomaly": 5.8397,
        "meta_ephemeris_type": 0,
        "meta_classification_type": "U",
        "meta_norad_cat_id": 30397,
        "meta_element_set_no": 999,
        "meta_rev_at_epoch": 95959,
        "meta_bstar": 0.0012176,
        "meta_mean_motion_dot": 1.885e-05,
        "meta_mean_motion_ddot": 0,
        "tle_line1": "1 30397U 99025ADL 25360.64135595  .00001885  00000+0  12176-2 0  9991",
        "tle_line2": "2 30397  98.4065 147.6997 0149429  53.4916   5.8397 13.98633404959596"
      },
      "geometry": {
        "type": "Point",
        "coordinates": [
          -31.80713673906538,
          0.08132273821915406
        ]
      }
    },
    {
      "type": "Feature",
      "properties": {
        "norad_id": 30398,
        "name": "FENGYUN 1C DEB",
        "group": "fengyun-1c-debris",
        "lat": -72.19198135257894,
        "lon": -69.729329846677,
        "alt_km": 862.0746220322862,
        "timestamp": "2025-12-27T03:58:44.427811+00:00",
        "meta_object_name": "FENGYUN 1C DEB",
        "meta_object_id": "1999-025ADM",
        "meta_epoch": "2025-12-26T16:17:13.186176",
        "meta_mean_motion": 13.78712064,
        "meta_eccentricity": 0.0172403,
        "meta_inclination": 99.7144,
        "meta_ra_of_asc_node": 257.545,
        "meta_arg_of_pericenter": 259.6106,
        "meta_mean_anomaly": 127.8207,
        "meta_ephemeris_type": 0,
        "meta_classification_type": "U",
        "meta_norad_cat_id": 30398,
        "meta_element_set_no": 999,
        "meta_rev_at_epoch": 94949,
        "meta_bstar": 0.00044531,
        "meta_mean_motion_dot": 4.57e-06,
        "meta_mean_motion_ddot": 0,
        "tle_line1": "1 30398U 99025ADM 25360.67862484  .00000457  00000+0  44531-3 0  9994",
        "tle_line2": "2 30398  99.7144 257.5450 0172403 259.6106 127.8207 13.78712064949494"
      },
      "geometry": {
        "type": "Point",
        "coordinates": [
          -69.729329846677,
          -72.19198135257894
        ]
      }
    },
    {
      "type": "Feature",
      "properties": {
        "norad_id": 30400,
        "name": "FENGYUN 1C DEB",
        "group": "fengyun-1c-debris",
        "lat": -61.792876730429406,
        "lon": -53.540179922396526,
        "alt_km": 702.7118016432869,
        "timestamp": "2025-12-27T03:58:44.427820+00:00",
        "meta_object_name": "FENGYUN 1C DEB",
        "meta_object_id": "1999-025ADP",
        "meta_epoch": "2025-12-26T18:11:23.272800",
        "meta_mean_motion": 14.10218375,
        "meta_eccentricity": 0.0225267,
        "meta_inclination": 99.1563,
        "meta_ra_of_asc_node": 288.5445,
        "meta_arg_of_pericenter": 296.893,
        "meta_mean_anomaly": 90.3082,
        "meta_ephemeris_type": 0,
        "meta_classification_type": "U",
        "meta_norad_cat_id": 30400,
        "meta_element_set_no": 999,
        "meta_rev_at_epoch": 95712,
        "meta_bstar": 0.0040942,
        "meta_mean_motion_dot": 9.147e-05,
        "meta_mean_motion_ddot": 0,
        "tle_line1": "1 30400U 99025ADP 25360.75790825  .00009147  00000+0  40942-2 0  9992",
        "tle_line2": "2 30400  99.1563 288.5445 0225267 296.8930  90.3082 14.10218375957127"
      },
      "geometry": {
        "type": "Point",
        "coordinates": [
          -53.540179922396526,
          -61.792876730429406
        ]
      }
    },
    {
      "type": "Feature",
      "properties": {
        "norad_id": 30401,
        "name": "FENGYUN 1C DEB",
        "group": "fengyun-1c-debris",
        "lat": 11.062193747207568,
        "lon": 60.17326721744512,
        "alt_km": 789.1032073779788,
        "timestamp": "2025-12-27T03:58:44.427829+00:00",
        "meta_object_name": "FENGYUN 1C DEB",
        "meta_object_id": "1999-025ADQ",
        "meta_epoch": "2025-12-26T15:25:54.456096",
        "meta_mean_motion": 14.28002292,
        "meta_eccentricity": 0.0108143,
        "meta_inclination": 98.9464,
        "meta_ra_of_asc_node": 237.873,
        "meta_arg_of_pericenter": 87.4956,
        "meta_mean_anomaly": 273.8599,
        "meta_ephemeris_type": 0,
        "meta_classification_type": "U",
        "meta_norad_cat_id": 30401,
        "meta_element_set_no": 999,
        "meta_rev_at_epoch": 98502,
        "meta_bstar": 0.00015625,
        "meta_mean_motion_dot": 3.67e-06,
        "meta_mean_motion_ddot": 0,
        "tle_line1": "1 30401U 99025ADQ 25360.64299139  .00000367  00000+0  15625-3 0  9999",
        "tle_line2": "2 30401  98.9464 237.8730 0108143  87.4956 273.8599 14.28002292985023"
      },
      "geometry": {
        "type": "Point",
        "coordinates": [
          60.17326721744512,
          11.062193747207568
        ]
      }
    },
    {
      "type": "Feature",
      "properties": {
        "norad_id": 30403,
        "name": "FENGYUN 1C DEB",
        "group": "fengyun-1c-debris",
        "lat": 6.283307016852284,
        "lon": 78.9632446702286,
        "alt_km": 773.5497959911418,
        "timestamp": "2025-12-27T03:58:44.427838+00:00",
        "meta_object_name": "FENGYUN 1C DEB",
        "meta_object_id": "1999-025ADS",
        "meta_epoch": "2025-12-26T16:07:32.697408",
        "meta_mean_motion": 14.21641281,
        "meta_eccentricity": 0.0074493,
        "meta_inclination": 99.0585,
        "meta_ra_of_asc_node": 79.463,
        "meta_arg_of_pericenter": 341.9314,
        "meta_mean_anomaly": 17.9217,
        "meta_ephemeris_type": 0,
        "meta_classification_type": "U",
        "meta_norad_cat_id": 30403,
        "meta_element_set_no": 999,
        "meta_rev_at_epoch": 97004,
        "meta_bstar": 0.0018813,
        "meta_mean_motion_dot": 4.201e-05,
        "meta_mean_motion_ddot": 0,
        "tle_line1": "1 30403U 99025ADS 25360.67190622  .00004201  00000+0  18813-2 0  9993",
        "tle_line2": "2 30403  99.0585  79.4630 0074493 341.9314  17.9217 14.21641281970046"
      },
      "geometry": {
        "type": "Point",
        "coordinates": [
          78.9632446702286,
          6.283307016852284
        ]
      }
    },
    {
      "type": "Feature",
      "properties": {
        "norad_id": 30404,
        "name": "FENGYUN 1C DEB",
        "group": "fengyun-1c-debris",
        "lat": -49.57804290423686,
        "lon": -99.3442461490972,
        "alt_km": 1306.7230903211039,
        "timestamp": "2025-12-27T03:58:44.427847+00:00",
        "meta_object_name": "FENGYUN 1C DEB",
        "meta_object_id": "1999-025ADT",
        "meta_epoch": "2025-12-19T23:54:32.428224",
        "meta_mean_motion": 13.34354549,
        "meta_eccentricity": 0.03762973,
        "meta_inclination": 99.8326,
        "meta_ra_of_asc_node": 85.5019,
        "meta_arg_of_pericenter": 119.2039,
        "meta_mean_anomaly": 244.7273,
        "meta_ephemeris_type": 0,
        "meta_classification_type": "U",
        "meta_norad_cat_id": 30404,
        "meta_element_set_no": 999,
        "meta_rev_at_epoch": 58133,
        "meta_bstar": 0.00058436057,
        "meta_mean_motion_dot": 3.95e-06,
        "meta_mean_motion_ddot": 0,
        "tle_line1": "1 30404U 99025ADT 25353.99620866  .00000395  00000+0  58436-3 0  9995",
        "tle_line2": "2 30404  99.8326  85.5019 0376297 119.2039 244.7273 13.34354549581337"
      },
      "geometry": {
        "type": "Point",
        "coordinates": [
          -99.3442461490972,
          -49.57804290423686
        ]
      }
    }
  ]
}